start=new Date('2022-06-19T00:00:00.000Z').valueOf();
sats=[{"OBJECT_ID":"2021-036AW","MEAN_MOTION_DDOT":"0.0000000000000","GP_ID":"206288730","RCS_SIZE":"LARGE","ECCENTRICITY":"0.00017230","CLASSIFICATION_TYPE":"U","BSTAR":"-0.00006013500000","MEAN_MOTION":"15.06395490","PERIOD":"95.592","LAUNCH_DATE":"2021-04-29","TIME_SYSTEM":"UTC","NORAD_CAT_ID":"48320","SITE":"AFETR","APOAPSIS":"548.421","CENTER_NAME":"EARTH","MEAN_ELEMENT_THEORY":"SGP4","TLE_LINE2":"2 48320  53.0552  98.8924 0001723  59.3149 300.8010 15.06395490 62645","SEMIMAJOR_AXIS":"6925.362","PERIAPSIS":"546.034","RA_OF_ASC_NODE":"98.8924","MEAN_MOTION_DOT":"-0.00001177","EPOCH":"2022-06-16T00:27:36.770976","OBJECT_NAME":"STARLINK-2029","INCLINATION":"53.0552","COUNTRY_CODE":"US","ARG_OF_PERICENTER":"59.3149","ELEMENT_SET_NO":"999","MEAN_ANOMALY":"300.8010","REV_AT_EPOCH":"6264","OBJECT_TYPE":"PAYLOAD","DECAY_DATE":null,"FILE":"3497002","EPHEMERIS_TYPE":"0","TLE_LINE1":"1 48320U 21036AW  22167.01917559 -.00001177  00000-0 -60135-4 0  9991","REF_FRAME":"TEME"},{"OBJECT_TYPE":"PAYLOAD","FILE":"3497002","EPHEMERIS_TYPE":"0","DECAY_DATE":null,"REV_AT_EPOCH":"6264","REF_FRAME":"TEME","TLE_LINE1":"1 48321U 21036AX  22167.01548742 -.00000779  00000-0 -33423-4 0  9993","INCLINATION":"53.0557","COUNTRY_CODE":"US","OBJECT_NAME":"STARLINK-2457","EPOCH":"2022-06-16T00:22:18.113088","ELEMENT_SET_NO":"999","MEAN_ANOMALY":"293.9959","ARG_OF_PERICENTER":"66.1222","CENTER_NAME":"EARTH","MEAN_ELEMENT_THEORY":"SGP4","APOAPSIS":"548.492","TLE_LINE2":"2 48321  53.0557  98.8979 0001834  66.1222 293.9959 15.06397245 62646","NORAD_CAT_ID":"48321","SITE":"AFETR","RA_OF_ASC_NODE":"98.8979","MEAN_MOTION_DOT":"-0.00000779","SEMIMAJOR_AXIS":"6925.357","PERIAPSIS":"545.952","GP_ID":"206288477","MEAN_MOTION_DDOT":"0.0000000000000","RCS_SIZE":"LARGE","ECCENTRICITY":"0.00018340","OBJECT_ID":"2021-036AX","PERIOD":"95.592","LAUNCH_DATE":"2021-04-29","TIME_SYSTEM":"UTC","BSTAR":"-0.00003342300000","CLASSIFICATION_TYPE":"U","MEAN_MOTION":"15.06397245"},{"EPHEMERIS_TYPE":"0","FILE":"3497002","DECAY_DATE":null,"OBJECT_TYPE":"PAYLOAD","REV_AT_EPOCH":"6264","REF_FRAME":"TEME","TLE_LINE1":"1 48322U 21036AY  22167.01179341  .00001069  00000-0  90607-4 0  9997","COUNTRY_CODE":"US","INCLINATION":"53.0554","OBJECT_NAME":"STARLINK-2477","EPOCH":"2022-06-16T00:16:58.950624","MEAN_ANOMALY":"300.9729","ELEMENT_SET_NO":"999","ARG_OF_PERICENTER":"59.1390","TLE_LINE2":"2 48322  53.0554  98.9148 0001314  59.1390 300.9729 15.06404313 62643","CENTER_NAME":"EARTH","MEAN_ELEMENT_THEORY":"SGP4","APOAPSIS":"548.110","SITE":"AFETR","NORAD_CAT_ID":"48322","MEAN_MOTION_DOT":"0.00001069","RA_OF_ASC_NODE":"98.9148","PERIAPSIS":"546.290","SEMIMAJOR_AXIS":"6925.335","ECCENTRICITY":"0.00013140","MEAN_MOTION_DDOT":"0.0000000000000","GP_ID":"206287233","RCS_SIZE":"LARGE","OBJECT_ID":"2021-036AY","TIME_SYSTEM":"UTC","PERIOD":"95.592","LAUNCH_DATE":"2021-04-29","MEAN_MOTION":"15.06404313","BSTAR":"0.00009060700000","CLASSIFICATION_TYPE":"U"},{"MEAN_ANOMALY":"298.6027","ELEMENT_SET_NO":"999","ARG_OF_PERICENTER":"61.5200","COUNTRY_CODE":"US","INCLINATION":"53.0542","OBJECT_NAME":"STARLINK-2515","EPOCH":"2022-06-16T00:11:40.970112","REF_FRAME":"TEME","TLE_LINE1":"1 48323U 21036AZ  22167.00811308 -.00000299  00000-0 -11125-5 0  9998","DECAY_DATE":null,"EPHEMERIS_TYPE":"0","FILE":"3497002","OBJECT_TYPE":"PAYLOAD","REV_AT_EPOCH":"6264","TIME_SYSTEM":"UTC","LAUNCH_DATE":"2021-04-29","PERIOD":"95.591","MEAN_MOTION":"15.06418007","CLASSIFICATION_TYPE":"U","BSTAR":"-0.00000111250000","ECCENTRICITY":"0.00023640","RCS_SIZE":"LARGE","GP_ID":"206287982","MEAN_MOTION_DDOT":"0.0000000000000","OBJECT_ID":"2021-036AZ","MEAN_MOTION_DOT":"-0.00000299","RA_OF_ASC_NODE":"98.9360","PERIAPSIS":"545.521","SEMIMAJOR_AXIS":"6925.293","TLE_LINE2":"2 48323  53.0542  98.9360 0002364  61.5200 298.6027 15.06418007 62649","APOAPSIS":"548.796","MEAN_ELEMENT_THEORY":"SGP4","CENTER_NAME":"EARTH","SITE":"AFETR","NORAD_CAT_ID":"48323"},{"OBJECT_ID":"2021-036BA","RCS_SIZE":"LARGE","GP_ID":"206288230","MEAN_MOTION_DDOT":"0.0000000000000","ECCENTRICITY":"0.00015960","CLASSIFICATION_TYPE":"U","BSTAR":"-0.00001408800000","MEAN_MOTION":"15.06400515","LAUNCH_DATE":"2021-04-29","PERIOD":"95.592","TIME_SYSTEM":"UTC","NORAD_CAT_ID":"48324","SITE":"AFETR","CENTER_NAME":"EARTH","MEAN_ELEMENT_THEORY":"SGP4","APOAPSIS":"548.317","TLE_LINE2":"2 48324  53.0536  98.6406 0001596  60.2932 299.8216 15.06400515 62643","SEMIMAJOR_AXIS":"6925.347","PERIAPSIS":"546.107","RA_OF_ASC_NODE":"98.6406","MEAN_MOTION_DOT":"-0.00000491","OBJECT_NAME":"STARLINK-2527","EPOCH":"2022-06-16T01:40:33.309408","INCLINATION":"53.0536","COUNTRY_CODE":"US","ARG_OF_PERICENTER":"60.2932","ELEMENT_SET_NO":"999","MEAN_ANOMALY":"299.8216","REV_AT_EPOCH":"6264","OBJECT_TYPE":"PAYLOAD","FILE":"3497002","EPHEMERIS_TYPE":"0","DECAY_DATE":null,"TLE_LINE1":"1 48324U 21036BA  22167.06982997 -.00000491  00000-0 -14088-4 0  9992","REF_FRAME":"TEME"},{"LAUNCH_DATE":"2021-04-29","PERIOD":"95.592","TIME_SYSTEM":"UTC","BSTAR":"-0.00000930590000","CLASSIFICATION_TYPE":"U","MEAN_MOTION":"15.06396251","RCS_SIZE":"LARGE","GP_ID":"206288978","MEAN_MOTION_DDOT":"0.0000000000000","ECCENTRICITY":"0.00018120","OBJECT_ID":"2021-036BB","RA_OF_ASC_NODE":"98.6809","MEAN_MOTION_DOT":"-0.00000420","SEMIMAJOR_AXIS":"6925.360","PERIAPSIS":"545.970","APOAPSIS":"548.480","MEAN_ELEMENT_THEORY":"SGP4","CENTER_NAME":"EARTH","TLE_LINE2":"2 48325  53.0553  98.6809 0001812  58.6614 301.4552 15.06396251 62654","NORAD_CAT_ID":"48325","SITE":"AFETR","ELEMENT_SET_NO":"999","MEAN_ANOMALY":"301.4552","ARG_OF_PERICENTER":"58.6614","INCLINATION":"53.0553","COUNTRY_CODE":"US","OBJECT_NAME":"STARLINK-2495","EPOCH":"2022-06-16T01:36:36.882720","REF_FRAME":"TEME","TLE_LINE1":"1 48325U 21036BB  22167.06709355 -.00000420  00000-0 -93059-5 0  9996","OBJECT_TYPE":"PAYLOAD","DECAY_DATE":null,"EPHEMERIS_TYPE":"0","FILE":"3497002","REV_AT_EPOCH":"6265"},{"LAUNCH_DATE":"2021-04-29","PERIOD":"95.592","TIME_SYSTEM":"UTC","BSTAR":"0.00003744800000","CLASSIFICATION_TYPE":"U","MEAN_MOTION":"15.06399016","RCS_SIZE":"LARGE","GP_ID":"206287734","MEAN_MOTION_DDOT":"0.0000000000000","ECCENTRICITY":"0.00014610","OBJECT_ID":"2021-036BC","RA_OF_ASC_NODE":"98.9860","MEAN_MOTION_DOT":"0.00000276","SEMIMAJOR_AXIS":"6925.352","PERIAPSIS":"546.205","APOAPSIS":"548.228","CENTER_NAME":"EARTH","MEAN_ELEMENT_THEORY":"SGP4","TLE_LINE2":"2 48326  53.0555  98.9860 0001461  70.8261 289.2886 15.06399016 62645","NORAD_CAT_ID":"48326","SITE":"AFETR","ELEMENT_SET_NO":"999","MEAN_ANOMALY":"289.2886","ARG_OF_PERICENTER":"70.8261","INCLINATION":"53.0555","COUNTRY_CODE":"US","OBJECT_NAME":"STARLINK-2498","EPOCH":"2022-06-15T23:55:46.069536","REF_FRAME":"TEME","TLE_LINE1":"1 48326U 21036BC  22166.99706099  .00000276  00000-0  37448-4 0  9996","OBJECT_TYPE":"PAYLOAD","DECAY_DATE":null,"EPHEMERIS_TYPE":"0","FILE":"3497002","REV_AT_EPOCH":"6264"},{"APOAPSIS":"548.587","CENTER_NAME":"EARTH","MEAN_ELEMENT_THEORY":"SGP4","TLE_LINE2":"2 48327  53.0566  98.9998 0001965  60.2447 299.8737 15.06395857 62649","SITE":"AFETR","NORAD_CAT_ID":"48327","RA_OF_ASC_NODE":"98.9998","MEAN_MOTION_DOT":"-0.00000716","SEMIMAJOR_AXIS":"6925.361","PERIAPSIS":"545.865","GP_ID":"206287483","RCS_SIZE":"LARGE","MEAN_MOTION_DDOT":"0.0000000000000","ECCENTRICITY":"0.00019650","OBJECT_ID":"2021-036BD","LAUNCH_DATE":"2021-04-29","PERIOD":"95.592","TIME_SYSTEM":"UTC","BSTAR":"-0.00002918300000","CLASSIFICATION_TYPE":"U","MEAN_MOTION":"15.06395857","OBJECT_TYPE":"PAYLOAD","DECAY_DATE":null,"FILE":"3497002","EPHEMERIS_TYPE":"0","REV_AT_EPOCH":"6264","REF_FRAME":"TEME","TLE_LINE1":"1 48327U 21036BD  22166.99337704 -.00000716  00000-0 -29183-4 0  9998","INCLINATION":"53.0566","COUNTRY_CODE":"US","OBJECT_NAME":"STARLINK-2502","EPOCH":"2022-06-15T23:50:27.776256","ELEMENT_SET_NO":"999","MEAN_ANOMALY":"299.8737","ARG_OF_PERICENTER":"60.2447"},{"TLE_LINE2":"2 48328  53.0564  99.0135 0001526  55.1004 305.0129 15.06702336 62647","APOAPSIS":"547.344","CENTER_NAME":"EARTH","MEAN_ELEMENT_THEORY":"SGP4","SITE":"AFETR","NORAD_CAT_ID":"48328","MEAN_MOTION_DOT":"-0.00049922","RA_OF_ASC_NODE":"99.0135","PERIAPSIS":"545.230","SEMIMAJOR_AXIS":"6924.422","ECCENTRICITY":"0.00015260","GP_ID":"206288731","MEAN_MOTION_DDOT":"0.0000000000000","RCS_SIZE":"LARGE","OBJECT_ID":"2021-036BE","TIME_SYSTEM":"UTC","LAUNCH_DATE":"2021-04-29","PERIOD":"95.573","MEAN_MOTION":"15.06702336","CLASSIFICATION_TYPE":"U","BSTAR":"-0.00332870000000","DECAY_DATE":null,"EPHEMERIS_TYPE":"0","FILE":"3497002","OBJECT_TYPE":"PAYLOAD","REV_AT_EPOCH":"6264","REF_FRAME":"TEME","TLE_LINE1":"1 48328U 21036BE  22166.98880415 -.00049922  00000-0 -33287-2 0  9990","COUNTRY_CODE":"US","INCLINATION":"53.0564","EPOCH":"2022-06-15T23:43:52.678560","OBJECT_NAME":"STARLINK-2504","MEAN_ANOMALY":"305.0129","ELEMENT_SET_NO":"999","ARG_OF_PERICENTER":"55.1004"},{"LAUNCH_DATE":"2021-04-29","PERIOD":"95.591","TIME_SYSTEM":"UTC","CLASSIFICATION_TYPE":"U","BSTAR":"0.00000706140000","MEAN_MOTION":"15.06412510","GP_ID":"206288478","RCS_SIZE":"LARGE","MEAN_MOTION_DDOT":"0.0000000000000","ECCENTRICITY":"0.00021670","OBJECT_ID":"2021-036BF","RA_OF_ASC_NODE":"99.0389","MEAN_MOTION_DOT":"-0.00000177","SEMIMAJOR_AXIS":"6925.310","PERIAPSIS":"545.675","CENTER_NAME":"EARTH","MEAN_ELEMENT_THEORY":"SGP4","APOAPSIS":"548.676","TLE_LINE2":"2 48329  53.0546  99.0389 0002167  40.5921 319.5229 15.06412510 62640","NORAD_CAT_ID":"48329","SITE":"AFETR","ELEMENT_SET_NO":"999","MEAN_ANOMALY":"319.5229","ARG_OF_PERICENTER":"40.5921","INCLINATION":"53.0546","COUNTRY_CODE":"US","OBJECT_NAME":"STARLINK-2510","EPOCH":"2022-06-15T23:39:49.635360","REF_FRAME":"TEME","TLE_LINE1":"1 48329U 21036BF  22166.98599115 -.00000177  00000-0  70614-5 0  9991","OBJECT_TYPE":"PAYLOAD","FILE":"3497002","EPHEMERIS_TYPE":"0","DECAY_DATE":null,"REV_AT_EPOCH":"6264"}];
